$GPGGA,123519,4807.038,N,01131.000,E,1,08,0.9,545.4,M,46.9,M,,*47
$GPGSA,A,3,04,05,,09,12,,,24,,,,,2.5,1.3,2.1*39
$GPGSV,2,1,07,07,79,048,42,02,51,062,43,26,36,256,42,27,27,138,42*71
$GPGSV,2,2,07,09,23,313,36,04,19,159,41,15,12,041,42*41
$GPRMC,123519,A,4807.038,N,01131.000,E,022.4,084.4,230394,003.1,W*6A
$GPGGA,123520,4807.039,N,01131.001,E,1,08,0.9,545.5,M,46.9,M,,*40
$GPGSA,A,3,04,05,,09,12,,,24,,,,,2.5,1.3,2.1*39
$GPRMC,123520,A,4807.039,N,01131.001,E,022.4,084.4,230394,003.1,W*6D
$GPGGA,123521,4807.040,N,01131.002,E,1,08,0.9,545.6,M,46.9,M,,*43
$GPGSA,A,3,04,05,,09,12,,,24,,,,,2.5,1.3,2.1*39
$GPRMC,123521,A,4807.040,N,01131.002,E,022.4,084.4,230394,003.1,W*6E
$GPGGA,123522,4807.041,N,01131.003,E,1,08,0.9,545.7,M,46.9,M,,*40
$GPGSA,A,3,04,05,,09,12,,,24,,,,,2.5,1.3,2.1*39
$GPRMC,123522,A,4807.041,N,01131.003,E,022.4,084.4,230394,003.1,W*6D
$GPGGA,123523,4807.042,N,01131.004,E,1,08,0.9,545.8,M,46.9,M,,*43
$GPGSA,A,3,04,05,,09,12,,,24,,,,,2.5,1.3,2.1*39
$GPRMC,123523,A,4807.042,N,01131.004,E,022.4,084.4,230394,003.1,W*6E
$GPGGA,123524,4807.043,N,01131.005,E,1,08,0.9,545.9,M,46.9,M,,*40
$GPGSA,A,3,04,05,,09,12,,,24,,,,,2.5,1.3,2.1*39
$GPRMC,123524,A,4807.043,N,01131.005,E,022.4,084.4,230394,003.1,W*6D

